COSMOS 2251 DEB         
1 36050U 93036AXM 17345.34820516  .00000418  00000-0  55214-4 0  9998
2 36050  74.0389 219.3557 0131851 348.6770  11.1443 14.77919661237033
